NORAD_CAT_ID,OBJECT_NAME,OBJECT_TYPE,EPOCH,MEAN_MOTION,ECCENTRICITY,INCLINATION,RA_OF_ASC_NODE,ARG_OF_PERICENTER,MEAN_ANOMALY,BSTAR,MEAN_MOTION_DOT,MEAN_MOTION_DDOT,TLE_LINE0,TLE_LINE1,TLE_LINE2,SEMIMAJOR_AXIS,PERIOD,APOGEE,PERIGEE,DECAYED
53174.0,STARLINK-4205,PAYLOAD,2022-10-15 22:00:01,15.0883326,0.0001513,53.2181,344.1593,41.8674,135.7027,0.0015540999999999,0.00024527,0.0,0 STARLINK-4205,1 53174U 22083AU  22288.91668981  .00024527  00000-0  15541-2 0  9993,2 53174  53.2181 344.1593 0001513  41.8674 135.7027 15.08833260 14535,6917.901,95.438,540.813,538.719,0.0
53174.0,STARLINK-4205,PAYLOAD,2022-10-16 06:00:00,15.08830399,0.0001691,53.2188,342.6609,48.7256,140.3417,0.00010651,1.407e-05,0.0,0 STARLINK-4205,1 53174U 22083AU  22289.25001157  .00001407  00000-0  10651-3 0  9997,2 53174  53.2188 342.6609 0001691  48.7256 140.3417 15.08830399 14582,6917.91,95.438,540.945,538.605,0.0
53174.0,STARLINK-4205,PAYLOAD,2022-10-16 14:00:01,15.08809011,0.0001894,53.2189,341.166,42.9684,157.6792,0.0031595,0.00050312,0.0,0 STARLINK-4205,1 53174U 22083AU  22289.58334491  .00050312  00000-0  31595-2 0  9991,2 53174  53.2189 341.1660 0001894  42.9684 157.6792 15.08809011  1300,6917.975,95.44,541.15,538.53,0.0
53174.0,STARLINK-4205,PAYLOAD,2022-10-16 22:00:00,15.08822097,0.0001796,53.2189,339.6683,47.3566,164.8786,-0.00011903,-2.181e-05,0.0,0 STARLINK-4205,1 53174U 22083AU  22289.91667824 -.00002181  00000-0 -11903-3 0  9992,2 53174  53.2189 339.6683 0001796  47.3566 164.8786 15.08822097  1308,6917.935,95.439,541.043,538.558,0.0
53174.0,STARLINK-4205,PAYLOAD,2022-10-17 14:00:01,15.0882384,0.0002063,53.2187,336.6776,45.0392,190.3737,0.0039223,0.00062664,0.0,0 STARLINK-4205,1 53174U 22083AU  22290.58334491  .00062664  00000-0  39223-2 0  9992,2 53174  53.2187 336.6776 0002063  45.0392 190.3737 15.08823840 14789,6917.93,95.439,541.222,538.368,0.0
53174.0,STARLINK-4205,PAYLOAD,2022-10-17 22:00:00,15.08837487,0.0001846,53.2193,335.1792,47.6918,199.3186,4.9952e-05,5.07e-06,0.0,0 STARLINK-4205,1 53174U 22083AU  22290.91667824  .00000507  00000-0  49952-4 0  9998,2 53174  53.2193 335.1792 0001846  47.6918 199.3186 15.08837487 14833,6917.888000000001,95.438,541.03,538.476,0.0
53174.0,STARLINK-4205,PAYLOAD,2022-10-18 14:00:01,15.08831931,0.0001982,53.2195,332.1881,42.3232,227.8785,0.00066689,0.00010339,0.0,0 STARLINK-4205,1 53174U 22083AU  22291.58334491  .00010339  00000-0  66689-3 0  9992,2 53174  53.2195 332.1881 0001982  42.3232 227.8785 15.08831931  1301,6917.905,95.438,541.141,538.399,0.0
53174.0,STARLINK-4205,PAYLOAD,2022-10-18 22:00:00,15.08814709,0.0001771999999999,53.2198,330.69,46.0301,235.7682,0.0024174,0.00038368,0.0,0 STARLINK-4205,1 53174U 22083AU  22291.91667824  .00038368  00000-0  24174-2 0  9992,2 53174  53.2198 330.6900 0001772  46.0301 235.7682 15.08814709  1302,6917.958000000001,95.439,541.049,538.597,0.0
53174.0,STARLINK-4205,PAYLOAD,2022-10-19 06:00:00,15.08855103,0.0001834,53.2198,329.1945,46.9155,246.4576,-0.00097107,-0.00015716,0.0,0 STARLINK-4205,1 53174U 22083AU  22292.25001157 -.00015716  00000-0 -97107-3 0  9992,2 53174  53.2198 329.1945 0001834  46.9155 246.4576 15.08855103 15038,6917.834,95.437,540.9680000000002,538.43,0.0
53174.0,STARLINK-4205,PAYLOAD,2022-10-19 14:00:01,15.08840451,0.0001940999999999,53.2194,327.6993,41.3555,263.6246,0.0013710999999999,0.00021601,0.0,0 STARLINK-4205,1 53174U 22083AU  22292.58334491  .00021601  00000-0  13711-2 0  9994,2 53174  53.2194 327.6993 0001941  41.3555 263.6246 15.08840451  1302,6917.879,95.438,541.087,538.401,0.0
53174.0,STARLINK-4205,PAYLOAD,2022-10-19 22:00:00,15.08820703,0.0001725,53.2195,326.2013,45.6668,270.932,0.0019935,0.00031564,0.0,0 STARLINK-4205,1 53174U 22083AU  22292.91667824  .00031564  00000-0  19935-2 0  9993,2 53174  53.2195 326.2013 0001725  45.6668 270.9320 15.08820703  1305,6917.939,95.439,540.998,538.611,0.0
53174.0,STARLINK-4205,PAYLOAD,2022-10-20 06:00:00,15.08860342,0.0001781999999999,53.2196,324.7058,45.1086,283.0753,-0.0010333,-0.00016705,0.0,0 STARLINK-4205,1 53174U 22083AU  22293.25001157 -.00016705  00000-0 -10333-2 0  9997,2 53174  53.2196 324.7058 0001782  45.1086 283.0753 15.08860342 15189,6917.818,95.436,540.9159999999998,538.45,0.0
53174.0,STARLINK-4205,PAYLOAD,2022-10-20 14:00:01,15.08855485,0.0001895,53.2185,323.2108,39.3989,300.3954,-0.00024979,-4.263e-05,0.0,0 STARLINK-4205,1 53174U 22083AU  22293.58334491 -.00004263  00000-0 -24979-3 0  9991,2 53174  53.2185 323.2108 0001895  39.3989 300.3954 15.08855485  1306,6917.833000000001,95.437,541.009,538.387,0.0
53174.0,STARLINK-4205,PAYLOAD,2022-10-20 22:00:00,15.08806676,0.0001635,53.2188,321.7126,44.7634,306.6379,0.0030545,0.00048615,0.0,0 STARLINK-4205,1 53174U 22083AU  22293.91667824  .00048615  00000-0  30545-2 0  9999,2 53174  53.2188 321.7126 0001635  44.7634 306.6379 15.08806676  1309,6917.982,95.44,540.9780000000002,538.716,0.0
53174.0,STARLINK-4205,PAYLOAD,2022-10-21 14:00:01,15.08846438,0.0001847,53.2181,318.7218,38.7825,335.8037,0.0013172,0.00020741,0.0,0 STARLINK-4205,1 53174U 22083AU  22294.58334491  .00020741  00000-0  13172-2 0  9991,2 53174  53.2181 318.7218 0001847  38.7825 335.8037 15.08846438  1305,6917.861,95.437,541.003,538.448,0.0
53174.0,STARLINK-4205,PAYLOAD,2022-10-21 22:00:00,15.0882016,0.0001601,53.2182,317.2236,44.0624,342.1361,0.0016734,0.0002643,0.0,0 STARLINK-4205,1 53174U 22083AU  22294.91667824  .00026430  00000-0  16734-2 0  9995,2 53174  53.2182 317.2236 0001601  44.0624 342.1361 15.08820160  1300,6917.941,95.439,540.914,538.698,0.0
53174.0,STARLINK-4205,PAYLOAD,2022-10-22 14:00:01,15.08841827,0.0001819,53.2176,314.2326,37.313,12.0572,0.00050572,7.77e-05,0.0,0 STARLINK-4205,1 53174U 22083AU  22295.58334491  .00007770  00000-0  50572-3 0  9995,2 53174  53.2176 314.2326 0001819  37.3130  12.0572 15.08841827  1308,6917.875,95.437,540.998,538.481,0.0
53174.0,STARLINK-4205,PAYLOAD,2022-10-22 22:00:00,15.08819737,0.0001599,53.2176,312.7345,42.312,18.6757,0.0022378,0.00035487,0.0,0 STARLINK-4205,1 53174U 22083AU  22295.91667824  .00035487  00000-0  22378-2 0  9999,2 53174  53.2176 312.7345 0001599  42.3120  18.6757 15.08819737  1304,6917.941999999999,95.439,540.914,538.701,0.0
53174.0,STARLINK-4205,PAYLOAD,2022-10-23 14:00:01,15.08851624,0.0001889999999999,53.2173,309.7433,36.9932,47.1822,0.00083796,0.00013078,0.0,0 STARLINK-4205,1 53174U 22083AU  22296.58334491  .00013078  00000-0  83796-3 0  9998,2 53174  53.2173 309.7433 0001890  36.9932  47.1822 15.08851624  1300,6917.845,95.437,541.0169999999998,538.4019999999998,0.0
53174.0,STARLINK-4205,PAYLOAD,2022-10-23 22:00:00,15.08837754,0.0001779,53.2175,308.2451,44.3272,51.4692,-0.00011437,-2.108e-05,0.0,0 STARLINK-4205,1 53174U 22083AU  22296.91667824 -.00002108  00000-0 -11437-3 0  9991,2 53174  53.2175 308.2451 0001779  44.3272  51.4692 15.08837754  1303,6917.887,95.438,540.9830000000002,538.5219999999998,0.0
53174.0,STARLINK-4205,PAYLOAD,2022-10-24 14:00:01,15.08796622,0.0002052,53.2175,305.2538,40.6716,78.2853,0.00064431,9.969e-05,0.0,0 STARLINK-4205,1 53174U 22083AU  22297.58334491  .00009969  00000-0  64431-3 0  9998,2 53174  53.2175 305.2538 0002052  40.6716  78.2853 15.08796622 15841,6918.013000000001,95.44,541.298,538.4580000000002,0.0
53174.0,STARLINK-4205,PAYLOAD,2022-10-24 22:00:00,15.08782768,0.0001891,53.2177,303.7558,46.1929,84.316,0.0030923,0.00049193,0.0,0 STARLINK-4205,1 53174U 22083AU  22297.91667824  .00049193  00000-0  30923-2 0  9995,2 53174  53.2177 303.7558 0001891  46.1929  84.3160 15.08782768  1306,6918.055,95.441,541.229,538.612,0.0
53174.0,STARLINK-4205,PAYLOAD,2022-10-25 14:00:01,15.08825081,0.0002144,53.2179,300.7645,42.624,110.9912,-5.652e-05,-1.187e-05,0.0,0 STARLINK-4205,1 53174U 22083AU  22298.58334491 -.00001187  00000-0 -56520-4 0  9996,2 53174  53.2179 300.7645 0002144  42.6240 110.9912 15.08825081  1308,6917.926,95.438,541.274,538.308,0.0
53174.0,STARLINK-4205,PAYLOAD,2022-10-25 22:00:01,15.08809483,0.000198,53.2182,299.2665,48.1986,117.0612,0.0028504,0.00045331,0.0,0 STARLINK-4205,1 53174U 22083AU  22298.91668981  .00045331  00000-0  28504-2 0  9993,2 53174  53.2182 299.2665 0001980  48.1986 117.0612 15.08809483  1304,6917.974,95.439,541.2080000000002,538.469,0.0
53174.0,STARLINK-4205,PAYLOAD,2022-10-26 14:00:01,15.08852957,0.0002186999999999,53.2183,296.2751,44.6417,143.7198,-0.0006724,-0.00010978,0.0,0 STARLINK-4205,1 53174U 22083AU  22299.58334491 -.00010978  00000-0 -67240-3 0  9995,2 53174  53.2183 296.2751 0002187  44.6417 143.7198 15.08852957  1307,6917.840999999999,95.437,541.219,538.193,0.0
53174.0,STARLINK-4205,PAYLOAD,2022-10-26 22:00:00,15.08834502,0.0002029999999999,53.2185,294.7773,50.2884,149.6841,0.0026496,0.00042127,0.0,0 STARLINK-4205,1 53174U 22083AU  22299.91667824  .00042127  00000-0  26496-2 0  9997,2 53174  53.2185 294.7773 0002030  50.2884 149.6841 15.08834502  1300,6917.897,95.438,541.1669999999998,538.3580000000002,0.0
53174.0,STARLINK-4205,PAYLOAD,2022-10-27 06:00:00,15.08867351,0.0002185,53.2186,293.2824,47.1917,164.392,-0.00080015,-0.0001301,0.0,0 STARLINK-4205,1 53174U 22083AU  22300.25001157 -.00013010  00000-0 -80015-3 0  9997,2 53174  53.2186 293.2824 0002185  47.1917 164.3920 15.08867351 16244,6917.797,95.436,541.173,538.15,0.0
53174.0,STARLINK-4205,PAYLOAD,2022-10-27 14:00:01,15.08879866,0.0002110999999999,53.2185,291.7856,45.5448,177.7241,-0.0030985,-0.00049319,0.0,0 STARLINK-4205,1 53174U 22083AU  22300.58335648 -.00049319  00000-0 -30985-2 0  9999,2 53174  53.2185 291.7856 0002111  45.5448 177.7241 15.08879866  1300,6917.759,95.435,541.0840000000002,538.163,0.0
53174.0,STARLINK-4205,PAYLOAD,2022-10-27 22:00:00,15.08845967,0.000192,53.2186,290.288,50.4888,184.3398,0.0014674,0.00023147,0.0,0 STARLINK-4205,1 53174U 22083AU  22300.91667824  .00023147  00000-0  14674-2 0  9996,2 53174  53.2186 290.2880 0001920  50.4888 184.3398 15.08845967  1304,6917.861999999999,95.437,541.055,538.399,0.0
